              TDR Cartesian                         TDR Cartesian  
    -----------------------------------       --------------------------------
     X    =        1583500.65                 X    =          482651.00
     Y    =       13726280.43  feet           Y    =         4183770.27  meter
     Z    =       17409165.60                 Z    =         5306313.68
     XDOT =     -24086.229173                 XDOT =       -7341.482652
     YDOT =       1758.772696  feet/sec       YDOT =         536.073918  meter/sec
     ZDOT =        810.071758                 ZDOT =         246.909872
  
  
    The mean element set is posted at the UTC for which position is
    just north of the next ascending node relative to the above
    vector time
 
 
    TWO LINE MEAN ELEMENT SET
  
    ISS
    1 25544U 98067A   16093.73197391  .00016717  00000-0  10270-3 0  9073
    2 25544  51.6420  74.3793 0002572  15.8542 344.2691 15.54363282 33244
  
  
    Satellite: ISS
    Catalog Number: 25544
    Epoch time:      16093.73197391   =   yrday.fracday
    Element set:     907
    Inclination:       51.6420  deg
    RA of node:        74.3793  deg
    Eccentricity:     .0002572     
    Arg of perigee:    15.8542  deg
    Mean anomaly:     344.2691  deg
    Mean motion:   15.54363282  rev/day
    Decay rate:    1.67170E-04  rev/day^2
    Epoch rev:            3324
    Checksum:              311
 
 
    Coasting Arc #9 (Orbit 3324)
    ---------------------------------------
 
    Vector Time (GMT): 2016/093/17:58:46.000
    Vector Time (MET): N/A
    Weight (LBS)     : 919477.5
 
              M50 Cartesian                         M50 Keplerian  
    -----------------------------------       --------------------------------
     X    =       -4184992.74                 A    =         6776796.70  meter
     Y    =         478544.59  meter          E    =           .0005051
     Z    =        5306121.54                 I    =           51.97852
     XDOT =      -1678.617320                 Wp   =           41.55970
     YDOT =      -7457.619887  meter/sec      RA   =           73.51839  deg
     ZDOT =       -647.328115                 TA   =           54.61271
                                              MA   =           54.56554
                                              Ha   =            221.206  n.mi
                                              Hp   =            214.002
 
              M50 Cartesian                         J2K Cartesian  
    -----------------------------------       --------------------------------
     X    =      -13730291.15                 X    =        -4215807.71
     Y    =        1570028.19  feet           Y    =          431573.46  meter
     Z    =       17408535.25                 Z    =         5285717.05
     XDOT =      -5507.274673                 XDOT =       -1591.955166
     YDOT =     -24467.256847  feet/sec       YDOT =       -7475.906810  meter/sec
     ZDOT =      -2123.779906                 ZDOT =        -655.271160
 
              TDR Cartesian                         TDR Cartesian  
    -----------------------------------       --------------------------------
     X    =        4033254.49                 X    =         1229335.97
     Y    =       13334244.84  feet           Y    =         4064277.83  meter
     Z    =       17319750.45                 Z    =         5279059.94
     XDOT =     -22109.728312                 XDOT =       -6739.045189
     YDOT =       9506.526084  feet/sec       YDOT =        2897.589150  meter/sec
     ZDOT =      -2156.952619                 ZDOT =        -657.439158
  
  
    The mean element set is posted at the UTC for which position is
    just north of the next ascending node relative to the above
    vector time
 
 
    TWO LINE MEAN ELEMENT SET
  
    ISS
    1 25544U 98067A   16093.79626724  .00016717  00000-0  10270-3 0  9087
    2 25544  51.6434  74.0590 0002561  15.3761 344.7469 15.54365994 33258
  
  
    Satellite: ISS
    Catalog Number: 25544
    Epoch time:      16093.79626724   =   yrday.fracday
    Element set:     908
    Inclination:       51.6434  deg
    RA of node:        74.0590  deg
    Eccentricity:     .0002561     
    Arg of perigee:    15.3761  deg
    Mean anomaly:     344.7469  deg
    Mean motion:   15.54365994  rev/day
    Decay rate:    1.67170E-04  rev/day^2
    Epoch rev:            3325
    Checksum:              329
 
 
    Coasting Arc #10 (Orbit 3339)
    ---------------------------------------
 
    Vector Time (GMT): 2016/094/17:58:46.000
    Vector Time (MET): N/A
    Weight (LBS)     : 919477.5
 
              M50 Cartesian                         M50 Keplerian  
    -----------------------------------       --------------------------------
     X    =        4578908.04                 A    =         6778936.15  meter
     Y    =        1320910.93  meter          E    =           .0011766
     Z    =       -4831597.32                 I    =           51.97468
     XDOT =        651.001647                 Wp   =           95.18712
     YDOT =       7180.984670  meter/sec      RA   =           68.54172  deg
     ZDOT =       2584.530879                 TA   =          200.15204
                                              MA   =          200.19853
                                              Ha   =            221.194  n.mi
                                              Hp   =            214.081
 
              M50 Cartesian                         J2K Cartesian  
    -----------------------------------       --------------------------------
     X    =       15022664.17                 X    =         4587266.74
     Y    =        4333697.28  feet           Y    =         1372161.51  meter
     Z    =      -15851697.25                 Z    =        -4809334.03
     XDOT =       2135.832175                 XDOT =         558.099191
     YDOT =      23559.660990  feet/sec       YDOT =        7187.745452  meter/sec
     ZDOT =       8479.432018                 ZDOT =        2587.466800
 
              TDR Cartesian                         TDR Cartesian  
    -----------------------------------       --------------------------------
     X    =        1274552.96                 X    =          388483.74
     Y    =      -15680819.14  feet           Y    =        -4779513.67  meter
     Z    =      -15755161.14                 Z    =        -4802173.12
     XDOT =      21548.077472                 XDOT =        6567.854013
     YDOT =      -6765.205232  feet/sec       YDOT =       -2062.034555  meter/sec
     ZDOT =       8490.880251                 ZDOT =        2588.020301
  
  
    The mean element set is posted at the UTC for which position is
    just north of the next ascending node relative to the above
    vector time
 
 
    TWO LINE MEAN ELEMENT SET
  
    ISS
    1 25544U 98067A   16094.76067283  .00016717  00000-0  10270-3 0  9095
    2 25544  51.6426  69.2502 0002633  19.7103 340.4151 15.54345609 33405
  
  
    Satellite: ISS
    Catalog Number: 25544
    Epoch time:      16094.76067283   =   yrday.fracday
    Element set:     909
    Inclination:       51.6426  deg
    RA of node:        69.2502  deg
    Eccentricity:     .0002633     
    Arg of perigee:    19.7103  deg
    Mean anomaly:     340.4151  deg
    Mean motion:   15.54345609  rev/day
    Decay rate:    1.67170E-04  rev/day^2
    Epoch rev:            3340
    Checksum:              294
 
 
    Coasting Arc #11 (Orbit 3340)
    ---------------------------------------
 
    Vector Time (GMT): 2016/094/18:43:00.000
    Vector Time (MET): N/A
    Weight (LBS)     : 919477.5
 
              M50 Cartesian                         M50 Keplerian  
    -----------------------------------       --------------------------------
     X    =       -4450779.71                 A    =         6777726.37  meter
     Y    =        -424797.58  meter          E    =           .0007702
     Z    =        5090848.64                 I    =           51.97036
     XDOT =      -1378.987927                 Wp   =           43.36316
     YDOT =      -7326.173372  meter/sec      RA   =           68.39428  deg
     ZDOT =      -1809.857770                 TA   =           64.10483
                                              MA   =           64.02546
                                              Ha   =            221.231  n.mi
                                              Hp   =            213.944
 
              M50 Cartesian                         J2K Cartesian  
    -----------------------------------       --------------------------------
     X    =      -14602295.64                 X    =        -4470427.83
     Y    =       -1393692.86  feet           Y    =         -474678.43  meter
     Z    =       16702259.31                 Z    =         5069180.24
     XDOT =      -4524.238607                 XDOT =       -1288.170851
     YDOT =     -24036.001877  feet/sec       YDOT =       -7341.086553  meter/sec
     ZDOT =      -5937.853576                 ZDOT =       -1816.335103
 
              TDR Cartesian                         TDR Cartesian  
    -----------------------------------       --------------------------------
     X    =        4324541.98                 X    =         1318120.40
     Y    =       14128083.11  feet           Y    =         4306239.73  meter
     Z    =       16608145.23                 Z    =         5062162.67
     XDOT =     -19477.162155                 XDOT =       -5936.639025
     YDOT =      13001.013889  feet/sec       YDOT =        3962.709033  meter/sec
     ZDOT =      -5964.669388                 ZDOT =       -1818.031229
  
  
    The mean element set is posted at the UTC for which position is
    just north of the next ascending node relative to the above
    vector time
 
 
    TWO LINE MEAN ELEMENT SET
  
    ISS
    1 25544U 98067A   16094.82496478  .00016717  00000-0  10270-3 0  9106
    2 25544  51.6424  68.9294 0002614  18.1341 341.9904 15.54375007 33411
  
